1 25544U 98067A   24267.36480617  .00052153  00000-0  93054-3 0  9996
2 25544  51.6385 189.0942 0007090  23.8528  76.9627 15.49523432473770
1 25544U 98067A   24267.18016463  .00093151  00000-0  16470-2 0  9999
2 25544  51.6386 190.0087 0007344  20.3493 129.8114 15.49523679473747
1 25544U 98067A   24267.04429950  .00200476  00000-0  34867-2 0  9993
2 25544  51.6374 190.6801 0007642  16.5968  95.1751 15.49527377473728
1 25544U 98067A   24266.83829758  .00008173  00000-0  15382-3 0  9991
2 25544  51.6381 191.7013 0007529  17.1847  24.7193 15.49457798473693
1 25544U 98067A   24265.87065711  .00031767  00000-0  57308-3 0  9994
2 25544  51.6383 196.4913 0007538  17.7526  23.0585 15.49438022473546
1 25544U 98067A   24264.83139848  .00021162  00000-0  38561-3 0  9990
2 25544  51.6372 201.6351 0007401  13.9237 346.1954 15.49392281473382
1 25544U 98067A   24263.79940138  .00022843  00000-0  41611-3 0  9993
2 25544  51.6373 206.7434 0007421  10.2584 349.8555 15.49351530473220
1 25544U 98067A   24262.83187815  .00020458  00000-0  37415-3 0  9999
2 25544  51.6372 211.5317 0007387   6.9330 353.1759 15.49311006473076
1 25544U 98067A   24261.88103691  .00022186  00000-0  40562-3 0  9990
2 25544  51.6369 216.2377 0007438   3.8272  89.5135 15.49266273472924
1 25544U 98067A   24260.84765470  .00080194  00000-0  14358-2 0  9990
2 25544  51.6363 221.3415 0007739 357.9498  88.1484 15.49233013472765
1 25544U 98067A   24259.81328615  .00025315  00000-0  46311-3 0  9990
2 25544  51.6381 226.4677 0007649 358.1564  75.3976 15.49164473472608
1 25544U 98067A   24259.04042691 -.00020782  00000-0 -36841-3 0  9994
2 25544  51.6359 230.2949 0007613 354.9391  85.5828 15.49088255472489
